start=new Date('2022-12-18T00:00:00.000Z').valueOf();
sats=[{"ARG_OF_PERICENTER":"43.9832","TLE_LINE2":"2 53667  97.6572 230.4263 0002308  43.9832 316.1575 15.01255804 16508","MEAN_MOTION":"15.01255804","MEAN_ANOMALY":"316.1575","ELEMENT_SET_NO":"999","GP_ID":"220759489","COUNTRY_CODE":"US","ECCENTRICITY":"0.00023080","RA_OF_ASC_NODE":"230.4263","PERIAPSIS":"561.423","TIME_SYSTEM":"UTC","OBJECT_TYPE":"PAYLOAD","REF_FRAME":"TEME","PERIOD":"95.920","EPOCH":"2022-12-17T17:45:52.311456","INCLINATION":"97.6572","OBJECT_ID":"2022-105V","SITE":"AFWTR","DECAY_DATE":null,"REV_AT_EPOCH":"1650","CLASSIFICATION_TYPE":"U","CENTER_NAME":"EARTH","RCS_SIZE":"LARGE","MEAN_MOTION_DOT":"0.00000987","TLE_LINE1":"1 53667U 22105V   22351.74018879  .00000987  00000-0  81469-4 0  9990","OBJECT_NAME":"STARLINK-4406","FILE":"3707070","EPHEMERIS_TYPE":"0","APOAPSIS":"564.627","BSTAR":"0.00008146900000","LAUNCH_DATE":"2022-08-31","SEMIMAJOR_AXIS":"6941.160","MEAN_ELEMENT_THEORY":"SGP4","NORAD_CAT_ID":"53667","MEAN_MOTION_DDOT":"0.0000000000000"},{"TLE_LINE2":"2 53668  97.6546 230.3942 0002624  37.8448 322.2960 15.01260317 16500","MEAN_MOTION":"15.01260317","ARG_OF_PERICENTER":"37.8448","MEAN_ANOMALY":"322.2960","ELEMENT_SET_NO":"999","GP_ID":"220759702","COUNTRY_CODE":"US","ECCENTRICITY":"0.00026240","RA_OF_ASC_NODE":"230.3942","PERIAPSIS":"561.190","TIME_SYSTEM":"UTC","PERIOD":"95.919","OBJECT_TYPE":"PAYLOAD","REF_FRAME":"TEME","EPOCH":"2022-12-17T17:35:12.358752","INCLINATION":"97.6546","OBJECT_ID":"2022-105W","SITE":"AFWTR","REV_AT_EPOCH":"1650","DECAY_DATE":null,"CENTER_NAME":"EARTH","CLASSIFICATION_TYPE":"U","TLE_LINE1":"1 53668U 22105W   22351.73278193  .00000182  00000-0  18773-4 0  9992","MEAN_MOTION_DOT":"0.00000182","RCS_SIZE":"LARGE","OBJECT_NAME":"STARLINK-4458","EPHEMERIS_TYPE":"0","FILE":"3707070","APOAPSIS":"564.832","SEMIMAJOR_AXIS":"6941.146","LAUNCH_DATE":"2022-08-31","BSTAR":"0.00001877300000","MEAN_ELEMENT_THEORY":"SGP4","MEAN_MOTION_DDOT":"0.0000000000000","NORAD_CAT_ID":"53668"},{"ECCENTRICITY":"0.00025320","TIME_SYSTEM":"UTC","RA_OF_ASC_NODE":"230.3967","PERIAPSIS":"561.254","MEAN_ANOMALY":"328.2235","TLE_LINE2":"2 53669  97.6533 230.3967 0002532  31.9142 328.2235 15.01260259 16504","MEAN_MOTION":"15.01260259","ARG_OF_PERICENTER":"31.9142","GP_ID":"220759916","COUNTRY_CODE":"US","ELEMENT_SET_NO":"999","EPHEMERIS_TYPE":"0","FILE":"3707070","TLE_LINE1":"1 53669U 22105X   22351.73462949 -.00000422  00000-0 -28271-4 0  9990","MEAN_MOTION_DOT":"-0.00000422","RCS_SIZE":"LARGE","OBJECT_NAME":"STARLINK-4464","MEAN_ELEMENT_THEORY":"SGP4","MEAN_MOTION_DDOT":"0.0000000000000","NORAD_CAT_ID":"53669","APOAPSIS":"564.769","SEMIMAJOR_AXIS":"6941.146","BSTAR":"-0.00002827100000","LAUNCH_DATE":"2022-08-31","PERIOD":"95.919","OBJECT_TYPE":"PAYLOAD","REF_FRAME":"TEME","EPOCH":"2022-12-17T17:37:51.987936","SITE":"AFWTR","CLASSIFICATION_TYPE":"U","DECAY_DATE":null,"REV_AT_EPOCH":"1650","CENTER_NAME":"EARTH","INCLINATION":"97.6533","OBJECT_ID":"2022-105X"},{"APOAPSIS":"564.578","LAUNCH_DATE":"2022-08-31","BSTAR":"0.00008332900000","SEMIMAJOR_AXIS":"6941.156","MEAN_ELEMENT_THEORY":"SGP4","NORAD_CAT_ID":"53670","MEAN_MOTION_DDOT":"0.0000000000000","RCS_SIZE":"LARGE","TLE_LINE1":"1 53670U 22105Y   22351.72907562  .00001011  00000-0  83329-4 0  9994","MEAN_MOTION_DOT":"0.00001011","OBJECT_NAME":"STARLINK-4459","FILE":"3707070","EPHEMERIS_TYPE":"0","INCLINATION":"97.6553","OBJECT_ID":"2022-105Y","SITE":"AFWTR","REV_AT_EPOCH":"1650","DECAY_DATE":null,"CLASSIFICATION_TYPE":"U","CENTER_NAME":"EARTH","OBJECT_TYPE":"PAYLOAD","REF_FRAME":"TEME","PERIOD":"95.920","EPOCH":"2022-12-17T17:29:52.133568","RA_OF_ASC_NODE":"230.3883","PERIAPSIS":"561.464","TIME_SYSTEM":"UTC","ECCENTRICITY":"0.00022430","ELEMENT_SET_NO":"999","GP_ID":"220760130","COUNTRY_CODE":"US","ARG_OF_PERICENTER":"41.4762","MEAN_MOTION":"15.01256989","TLE_LINE2":"2 53670  97.6553 230.3883 0002243  41.4762 318.6632 15.01256989 16507","MEAN_ANOMALY":"318.6632"},{"FILE":"3707070","EPHEMERIS_TYPE":"0","RCS_SIZE":"LARGE","TLE_LINE1":"1 53671U 22105Z   22351.66426962  .00000890  00000-0  73868-4 0  9999","MEAN_MOTION_DOT":"0.00000890","OBJECT_NAME":"STARLINK-4440","MEAN_ELEMENT_THEORY":"SGP4","NORAD_CAT_ID":"53671","MEAN_MOTION_DDOT":"0.0000000000000","APOAPSIS":"564.692","LAUNCH_DATE":"2022-08-31","BSTAR":"0.00007386800000","SEMIMAJOR_AXIS":"6941.145","REF_FRAME":"TEME","OBJECT_TYPE":"PAYLOAD","PERIOD":"95.919","EPOCH":"2022-12-17T15:56:32.895168","SITE":"AFWTR","DECAY_DATE":null,"CENTER_NAME":"EARTH","REV_AT_EPOCH":"1649","CLASSIFICATION_TYPE":"U","INCLINATION":"97.6544","OBJECT_ID":"2022-105Z","ECCENTRICITY":"0.00024230","TIME_SYSTEM":"UTC","RA_OF_ASC_NODE":"230.3234","PERIAPSIS":"561.329","MEAN_ANOMALY":"320.4202","ARG_OF_PERICENTER":"39.7199","TLE_LINE2":"2 53671  97.6544 230.3234 0002423  39.7199 320.4202 15.01260478 16492","MEAN_MOTION":"15.01260478","GP_ID":"220759063","COUNTRY_CODE":"US","ELEMENT_SET_NO":"999"},{"MEAN_ANOMALY":"317.6315","ARG_OF_PERICENTER":"42.5082","TLE_LINE2":"2 53672  97.6534 230.3199 0002232  42.5082 317.6315 15.01263717 16495","MEAN_MOTION":"15.01263717","COUNTRY_CODE":"US","GP_ID":"220759277","ELEMENT_SET_NO":"999","ECCENTRICITY":"0.00022320","TIME_SYSTEM":"UTC","PERIAPSIS":"561.451","RA_OF_ASC_NODE":"230.3199","EPOCH":"2022-12-17T15:48:54.317664","REF_FRAME":"TEME","OBJECT_TYPE":"PAYLOAD","PERIOD":"95.919","DECAY_DATE":null,"CENTER_NAME":"EARTH","REV_AT_EPOCH":"1649","CLASSIFICATION_TYPE":"U","SITE":"AFWTR","OBJECT_ID":"2022-105AA","INCLINATION":"97.6534","FILE":"3707070","EPHEMERIS_TYPE":"0","OBJECT_NAME":"STARLINK-4428","RCS_SIZE":"MEDIUM","MEAN_MOTION_DOT":"0.00000772","TLE_LINE1":"1 53672U 22105AA  22351.65896201  .00000772  00000-0  64719-4 0  9990","NORAD_CAT_ID":"53672","MEAN_MOTION_DDOT":"0.0000000000000","MEAN_ELEMENT_THEORY":"SGP4","LAUNCH_DATE":"2022-08-31","BSTAR":"0.00006471900000","SEMIMAJOR_AXIS":"6941.135","APOAPSIS":"564.550"},{"GP_ID":"220760343","COUNTRY_CODE":"US","ELEMENT_SET_NO":"999","MEAN_ANOMALY":"339.1992","MEAN_MOTION":"15.00488986","TLE_LINE2":"2 53673  97.6582 231.0326 0003336  20.9368 339.1992 15.00488986 16544","ARG_OF_PERICENTER":"20.9368","TIME_SYSTEM":"UTC","RA_OF_ASC_NODE":"231.0326","PERIAPSIS":"563.073","ECCENTRICITY":"0.00033360","SITE":"AFWTR","DECAY_DATE":null,"CENTER_NAME":"EARTH","REV_AT_EPOCH":"1654","CLASSIFICATION_TYPE":"U","INCLINATION":"97.6582","OBJECT_ID":"2022-105AB","PERIOD":"95.969","OBJECT_TYPE":"PAYLOAD","REF_FRAME":"TEME","EPOCH":"2022-12-17T18:03:36.364608","MEAN_ELEMENT_THEORY":"SGP4","MEAN_MOTION_DDOT":"0.0000000000000","NORAD_CAT_ID":"53673","APOAPSIS":"567.706","SEMIMAJOR_AXIS":"6943.524","BSTAR":"-0.00036769000000","LAUNCH_DATE":"2022-08-31","EPHEMERIS_TYPE":"0","FILE":"3707070","MEAN_MOTION_DOT":"-0.00004685","TLE_LINE1":"1 53673U 22105AB  22351.75250422 -.00004685  00000-0 -36769-3 0  9993","RCS_SIZE":"LARGE","OBJECT_NAME":"STARLINK-4456"},{"OBJECT_NAME":"STARLINK-4620","TLE_LINE1":"1 53674U 22105AC  22351.72352519  .00000070  00000-0  10061-4 0  9991","MEAN_MOTION_DOT":"0.00000070","RCS_SIZE":"LARGE","EPHEMERIS_TYPE":"0","FILE":"3707070","SEMIMAJOR_AXIS":"6941.132","LAUNCH_DATE":"2022-08-31","BSTAR":"0.00001006100000","APOAPSIS":"564.402","MEAN_MOTION_DDOT":"0.0000000000000","NORAD_CAT_ID":"53674","MEAN_ELEMENT_THEORY":"SGP4","EPOCH":"2022-12-17T17:21:52.576416","PERIOD":"95.919","OBJECT_TYPE":"PAYLOAD","REF_FRAME":"TEME","OBJECT_ID":"2022-105AC","INCLINATION":"97.6545","CENTER_NAME":"EARTH","DECAY_DATE":null,"REV_AT_EPOCH":"1650","CLASSIFICATION_TYPE":"U","SITE":"AFWTR","ECCENTRICITY":"0.00020230","PERIAPSIS":"561.593","RA_OF_ASC_NODE":"230.3835","TIME_SYSTEM":"UTC","TLE_LINE2":"2 53674  97.6545 230.3835 0002023  62.9154 297.2276 15.01264705 16509","MEAN_MOTION":"15.01264705","ARG_OF_PERICENTER":"62.9154","MEAN_ANOMALY":"297.2276","ELEMENT_SET_NO":"999","COUNTRY_CODE":"US","GP_ID":"220760556"},{"EPHEMERIS_TYPE":"0","FILE":"3707070","TLE_LINE1":"1 53675U 22105AD  22351.66057216  .00000609  00000-0  52027-4 0  9997","MEAN_MOTION_DOT":"0.00000609","RCS_SIZE":"LARGE","OBJECT_NAME":"STARLINK-4617","MEAN_ELEMENT_THEORY":"SGP4","MEAN_MOTION_DDOT":"0.0000000000000","NORAD_CAT_ID":"53675","APOAPSIS":"564.566","SEMIMAJOR_AXIS":"6941.153","BSTAR":"0.00005202700000","LAUNCH_DATE":"2022-08-31","PERIOD":"95.920","OBJECT_TYPE":"PAYLOAD","REF_FRAME":"TEME","EPOCH":"2022-12-17T15:51:13.434624","SITE":"AFWTR","DECAY_DATE":null,"CENTER_NAME":"EARTH","REV_AT_EPOCH":"1649","CLASSIFICATION_TYPE":"U","INCLINATION":"97.6544","OBJECT_ID":"2022-105AD","ECCENTRICITY":"0.00022300","TIME_SYSTEM":"UTC","RA_OF_ASC_NODE":"230.3202","PERIAPSIS":"561.470","MEAN_ANOMALY":"306.4049","TLE_LINE2":"2 53675  97.6544 230.3202 0002230  53.7381 306.4049 15.01258056 16498","MEAN_MOTION":"15.01258056","ARG_OF_PERICENTER":"53.7381","GP_ID":"220759490","COUNTRY_CODE":"US","ELEMENT_SET_NO":"999"},{"PERIAPSIS":"561.792","RA_OF_ASC_NODE":"230.3158","TIME_SYSTEM":"UTC","ECCENTRICITY":"0.00017760","ELEMENT_SET_NO":"999","COUNTRY_CODE":"US","GP_ID":"220759703","ARG_OF_PERICENTER":"79.2836","TLE_LINE2":"2 53676  97.6539 230.3158 0001776  79.2836 280.8588 15.01255761 16498","MEAN_MOTION":"15.01255761","MEAN_ANOMALY":"280.8588","BSTAR":"-0.00009143100000","LAUNCH_DATE":"2022-08-31","SEMIMAJOR_AXIS":"6941.160","APOAPSIS":"564.258","NORAD_CAT_ID":"53676","MEAN_MOTION_DDOT":"0.0000000000000","MEAN_ELEMENT_THEORY":"SGP4","OBJECT_NAME":"STARLINK-4621","RCS_SIZE":"LARGE","MEAN_MOTION_DOT":"-0.00001233","TLE_LINE1":"1 53676U 22105AE  22351.65316836 -.00001233  00000-0 -91431-4 0  9991","FILE":"3707070","EPHEMERIS_TYPE":"0","OBJECT_ID":"2022-105AE","INCLINATION":"97.6539","REV_AT_EPOCH":"1649","DECAY_DATE":null,"CLASSIFICATION_TYPE":"U","CENTER_NAME":"EARTH","SITE":"AFWTR","EPOCH":"2022-12-17T15:40:33.746304","REF_FRAME":"TEME","OBJECT_TYPE":"PAYLOAD","PERIOD":"95.920"}];
